[Satellite]
VERSION=1.1
NAME=STARLINK-1171
NICKNAME=STARLINK-1171
TLE1=1 45062U 20006U   20058.91667824 -.00050277  00000-0 -12674-2 0  9998
TLE2=2 45062  52.9966  92.2862 0001402  67.7732 112.7989 15.39322863  4940
STATUS=0
